{
  "type": "FeatureCollection",
  "features": [
    {
      "type": "Feature",
      "properties": {
        "norad_id": 50032,
        "name": "COSMOS 1408 DEB",
        "group": "cosmos-1408-debris",
        "lat": -51.2527449870926,
        "lon": 46.65451445554911,
        "alt_km": 439.5852046280161,
        "timestamp": "2025-12-15T04:01:20.721960+00:00",
        "meta_object_name": "COSMOS 1408 DEB",
        "meta_object_id": "1982-092RU",
        "meta_epoch": "2025-12-14T06:29:42.768960",
        "meta_mean_motion": 15.45714536,
        "meta_eccentricity": 0.00153705,
        "meta_inclination": 82.5644,
        "meta_ra_of_asc_node": 56.9399,
        "meta_arg_of_pericenter": 202.7716,
        "meta_mean_anomaly": 157.2853,
        "meta_ephemeris_type": 0,
        "meta_classification_type": "U",
        "meta_norad_cat_id": 50032,
        "meta_element_set_no": 999,
        "meta_rev_at_epoch": 22627,
        "meta_bstar": 0.00012439275,
        "meta_mean_motion_dot": 6.073e-05,
        "meta_mean_motion_ddot": 0,
        "tle_line1": "1 50032U 82092RU  25348.27063390  .00006073  00000+0  12439-3 0  9990",
        "tle_line2": "2 50032  82.5644  56.9399 0015370 202.7716 157.2853 15.45714536226274"
      },
      "geometry": {
        "type": "Point",
        "coordinates": [
          46.65451445554911,
          -51.2527449870926
        ]
      }
    },
    {
      "type": "Feature",
      "properties": {
        "norad_id": 50058,
        "name": "COSMOS 1408 DEB",
        "group": "cosmos-1408-debris",
        "lat": -48.566763400859976,
        "lon": 58.34810397547884,
        "alt_km": 390.6113284710864,
        "timestamp": "2025-12-15T04:01:20.721982+00:00",
        "meta_object_name": "COSMOS 1408 DEB",
        "meta_object_id": "1982-092SW",
        "meta_epoch": "2025-12-14T06:44:17.068704",
        "meta_mean_motion": 15.64218818,
        "meta_eccentricity": 0.00162702,
        "meta_inclination": 82.6134,
        "meta_ra_of_asc_node": 67.7285,
        "meta_arg_of_pericenter": 93.9145,
        "meta_mean_anomaly": 266.3974,
        "meta_ephemeris_type": 0,
        "meta_classification_type": "U",
        "meta_norad_cat_id": 50058,
        "meta_element_set_no": 999,
        "meta_rev_at_epoch": 22828,
        "meta_bstar": 0.00034843742,
        "meta_mean_motion_dot": 0.00033458,
        "meta_mean_motion_ddot": 0,
        "tle_line1": "1 50058U 82092SW  25348.28075311  .00033458  00000+0  34844-3 0  9996",
        "tle_line2": "2 50058  82.6134  67.7285 0016270  93.9145 266.3974 15.64218818228289"
      },
      "geometry": {
        "type": "Point",
        "coordinates": [
          58.34810397547884,
          -48.566763400859976
        ]
      }
    },
    {
      "type": "Feature",
      "properties": {
        "norad_id": 50404,
        "name": "COSMOS 1408 DEB",
        "group": "cosmos-1408-debris",
        "lat": -15.543456225646239,
        "lon": -149.6365341183913,
        "alt_km": 633.6325339016312,
        "timestamp": "2025-12-15T04:01:20.721996+00:00",
        "meta_object_name": "COSMOS 1408 DEB",
        "meta_object_id": "1982-092ADS",
        "meta_epoch": "2025-12-14T02:42:59.456160",
        "meta_mean_motion": 15.14064937,
        "meta_eccentricity": 0.01711626,
        "meta_inclination": 82.2037,
        "meta_ra_of_asc_node": 213.6276,
        "meta_arg_of_pericenter": 194.1601,
        "meta_mean_anomaly": 165.4804,
        "meta_ephemeris_type": 0,
        "meta_classification_type": "U",
        "meta_norad_cat_id": 50404,
        "meta_element_set_no": 999,
        "meta_rev_at_epoch": 21214,
        "meta_bstar": 0.003018664,
        "meta_mean_motion_dot": 0.00079961,
        "meta_mean_motion_ddot": 0,
        "tle_line1": "1 50404U 82092ADS 25348.11318815  .00079961  00000+0  30187-2 0  9996",
        "tle_line2": "2 50404  82.2037 213.6276 0171162 194.1601 165.4804 15.14064937212142"
      },
      "geometry": {
        "type": "Point",
        "coordinates": [
          -149.6365341183913,
          -15.543456225646239
        ]
      }
    },
    {
      "type": "Feature",
      "properties": {
        "norad_id": 50621,
        "name": "COSMOS 1408 DEB",
        "group": "cosmos-1408-debris",
        "lat": -79.59228288200885,
        "lon": -63.07229142670493,
        "alt_km": 413.75931544115065,
        "timestamp": "2025-12-15T04:01:20.722008+00:00",
        "meta_object_name": "COSMOS 1408 DEB",
        "meta_object_id": "1982-092ALR",
        "meta_epoch": "2025-12-14T06:50:41.683488",
        "meta_mean_motion": 15.56764557,
        "meta_eccentricity": 0.00289463,
        "meta_inclination": 82.5703,
        "meta_ra_of_asc_node": 72.5716,
        "meta_arg_of_pericenter": 146.729,
        "meta_mean_anomaly": 213.5793,
        "meta_ephemeris_type": 0,
        "meta_classification_type": "U",
        "meta_norad_cat_id": 50621,
        "meta_element_set_no": 999,
        "meta_rev_at_epoch": 22274,
        "meta_bstar": 0.00039734475,
        "meta_mean_motion_dot": 0.00029063,
        "meta_mean_motion_ddot": 0,
        "tle_line1": "1 50621U 82092ALR 25348.28520467  .00029063  00000+0  39734-3 0  9999",
        "tle_line2": "2 50621  82.5703  72.5716 0028946 146.7290 213.5793 15.56764557222745"
      },
      "geometry": {
        "type": "Point",
        "coordinates": [
          -63.07229142670493,
          -79.59228288200885
        ]
      }
    }
  ]
}